start=new Date('2022-11-11T00:00:00.000Z').valueOf();
sats=[{"INCLINATION":"53.2162","SEMIMAJOR_AXIS":"6917.936","CENTER_NAME":"EARTH","NORAD_CAT_ID":"49432","TLE_LINE1":"1 49432U 21104AA  22314.39247447 -.00005893  00000-0 -35257-3 0  9994","EPHEMERIS_TYPE":"0","TLE_LINE2":"2 49432  53.2162 274.7971 0003311  19.2667 340.8449 15.08821811 55309","PERIOD":"95.439","EPOCH":"2022-11-10T09:25:09.794208","MEAN_ELEMENT_THEORY":"SGP4","REF_FRAME":"TEME","MEAN_ANOMALY":"340.8449","RA_OF_ASC_NODE":"274.7971","DECAY_DATE":null,"PERIAPSIS":"537.510","TIME_SYSTEM":"UTC","ELEMENT_SET_NO":"999","MEAN_MOTION":"15.08821811","COUNTRY_CODE":"US","ARG_OF_PERICENTER":"19.2667","APOAPSIS":"542.092","ECCENTRICITY":"0.00033110","BSTAR":"-0.00035257000000","OBJECT_TYPE":"PAYLOAD","FILE":"3650424","REV_AT_EPOCH":"5530","CLASSIFICATION_TYPE":"U","LAUNCH_DATE":"2021-11-13","OBJECT_NAME":"STARLINK-3158","OBJECT_ID":"2021-104AA","GP_ID":"217309380","MEAN_MOTION_DDOT":"0.0000000000000","MEAN_MOTION_DOT":"-0.00005893","SITE":"AFETR","RCS_SIZE":"LARGE"},{"APOAPSIS":"541.684","ECCENTRICITY":"0.00027200","COUNTRY_CODE":"US","ARG_OF_PERICENTER":"30.9721","MEAN_MOTION":"15.08821446","SITE":"AFETR","RCS_SIZE":"LARGE","LAUNCH_DATE":"2021-11-13","OBJECT_NAME":"STARLINK-3079","MEAN_MOTION_DDOT":"0.0000000000000","GP_ID":"217371416","MEAN_MOTION_DOT":"0.00032070","OBJECT_ID":"2021-104AB","REV_AT_EPOCH":"5656","CLASSIFICATION_TYPE":"U","BSTAR":"0.00202490000000","OBJECT_TYPE":"PAYLOAD","FILE":"3650843","MEAN_ANOMALY":"329.1431","MEAN_ELEMENT_THEORY":"SGP4","PERIOD":"95.439","EPOCH":"2022-11-10T14:11:16.773504","REF_FRAME":"TEME","TLE_LINE2":"2 49433  53.2161 263.9124 0002720  30.9721 329.1431 15.08821446 56567","INCLINATION":"53.2161","SEMIMAJOR_AXIS":"6917.937","CENTER_NAME":"EARTH","NORAD_CAT_ID":"49433","TLE_LINE1":"1 49433U 21104AB  22314.59116636  .00032070  00000-0  20249-2 0  9991","EPHEMERIS_TYPE":"0","PERIAPSIS":"537.920","TIME_SYSTEM":"UTC","ELEMENT_SET_NO":"999","DECAY_DATE":null,"RA_OF_ASC_NODE":"263.9124"},{"MEAN_MOTION":"15.08814681","COUNTRY_CODE":"US","ARG_OF_PERICENTER":"25.5134","APOAPSIS":"541.592","ECCENTRICITY":"0.00025570","BSTAR":"-0.00030797000000","OBJECT_TYPE":"PAYLOAD","FILE":"3650272","REV_AT_EPOCH":"5622","CLASSIFICATION_TYPE":"U","LAUNCH_DATE":"2021-11-13","OBJECT_NAME":"STARLINK-3134","MEAN_MOTION_DDOT":"0.0000000000000","GP_ID":"217284392","MEAN_MOTION_DOT":"-0.00005183","OBJECT_ID":"2021-104AC","SITE":"AFETR","RCS_SIZE":"LARGE","INCLINATION":"53.2160","SEMIMAJOR_AXIS":"6917.958","CENTER_NAME":"EARTH","NORAD_CAT_ID":"49434","TLE_LINE1":"1 49434U 21104AC  22314.22499321 -.00005183  00000-0 -30797-3 0  9994","EPHEMERIS_TYPE":"0","TLE_LINE2":"2 49434  53.2160 285.5688 0002557  25.5134 334.5984 15.08814681 56227","PERIOD":"95.439","MEAN_ELEMENT_THEORY":"SGP4","REF_FRAME":"TEME","EPOCH":"2022-11-10T05:23:59.413344","MEAN_ANOMALY":"334.5984","RA_OF_ASC_NODE":"285.5688","DECAY_DATE":null,"PERIAPSIS":"538.054","TIME_SYSTEM":"UTC","ELEMENT_SET_NO":"999"},{"ARG_OF_PERICENTER":"28.3687","COUNTRY_CODE":"US","ECCENTRICITY":"0.00024030","APOAPSIS":"541.395","MEAN_MOTION":"15.08844018","OBJECT_NAME":"STARLINK-3117","LAUNCH_DATE":"2021-11-13","GP_ID":"217370919","MEAN_MOTION_DOT":"-0.00002233","MEAN_MOTION_DDOT":"0.0000000000000","OBJECT_ID":"2021-104AD","SITE":"AFETR","RCS_SIZE":"LARGE","OBJECT_TYPE":"PAYLOAD","BSTAR":"-0.00012221000000","FILE":"3650843","CLASSIFICATION_TYPE":"U","REV_AT_EPOCH":"5548","PERIOD":"95.437","MEAN_ELEMENT_THEORY":"SGP4","REF_FRAME":"TEME","EPOCH":"2022-11-10T15:53:19.653792","MEAN_ANOMALY":"331.7435","NORAD_CAT_ID":"49435","TLE_LINE1":"1 49435U 21104AD  22314.66203303 -.00002233  00000-0 -12221-3 0  9991","CENTER_NAME":"EARTH","SEMIMAJOR_AXIS":"6917.868","INCLINATION":"53.2166","EPHEMERIS_TYPE":"0","TLE_LINE2":"2 49435  53.2166 263.5920 0002403  28.3687 331.7435 15.08844018 55487","DECAY_DATE":null,"PERIAPSIS":"538.071","ELEMENT_SET_NO":"999","TIME_SYSTEM":"UTC","RA_OF_ASC_NODE":"263.5920"},{"NORAD_CAT_ID":"49436","TLE_LINE1":"1 49436U 21104AE  22314.59484648  .00019014  00000-0  12106-2 0  9991","CENTER_NAME":"EARTH","SEMIMAJOR_AXIS":"6917.980","INCLINATION":"53.2180","EPHEMERIS_TYPE":"0","TLE_LINE2":"2 49436  53.2180 263.8959 0002323  31.7815 328.3317 15.08807555 55476","REF_FRAME":"TEME","PERIOD":"95.440","MEAN_ELEMENT_THEORY":"SGP4","EPOCH":"2022-11-10T14:16:34.735872","MEAN_ANOMALY":"328.3317","RA_OF_ASC_NODE":"263.8959","DECAY_DATE":null,"PERIAPSIS":"538.238","ELEMENT_SET_NO":"999","TIME_SYSTEM":"UTC","MEAN_MOTION":"15.08807555","ARG_OF_PERICENTER":"31.7815","COUNTRY_CODE":"US","ECCENTRICITY":"0.00023230","APOAPSIS":"541.452","OBJECT_TYPE":"PAYLOAD","BSTAR":"0.00121060000000","FILE":"3650843","CLASSIFICATION_TYPE":"U","REV_AT_EPOCH":"5547","OBJECT_NAME":"STARLINK-3049","LAUNCH_DATE":"2021-11-13","MEAN_MOTION_DDOT":"0.0000000000000","GP_ID":"217371169","OBJECT_ID":"2021-104AE","MEAN_MOTION_DOT":"0.00019014","SITE":"AFETR","RCS_SIZE":"LARGE"},{"MEAN_MOTION":"15.08811247","ECCENTRICITY":"0.00026790","APOAPSIS":"541.687","ARG_OF_PERICENTER":"25.8458","COUNTRY_CODE":"US","CLASSIFICATION_TYPE":"U","REV_AT_EPOCH":"5547","FILE":"3650843","OBJECT_TYPE":"PAYLOAD","BSTAR":"-0.00048489000000","RCS_SIZE":"LARGE","SITE":"AFETR","GP_ID":"217371916","MEAN_MOTION_DDOT":"0.0000000000000","MEAN_MOTION_DOT":"-0.00007992","OBJECT_ID":"2021-104AF","OBJECT_NAME":"STARLINK-3130","LAUNCH_DATE":"2021-11-13","TLE_LINE2":"2 49437  53.2158 263.9367 0002679  25.8458 334.2667 15.08811247 55474","EPHEMERIS_TYPE":"0","TLE_LINE1":"1 49437U 21104AF  22314.58747183 -.00007992  00000-0 -48489-3 0  9995","NORAD_CAT_ID":"49437","INCLINATION":"53.2158","SEMIMAJOR_AXIS":"6917.968","CENTER_NAME":"EARTH","MEAN_ANOMALY":"334.2667","MEAN_ELEMENT_THEORY":"SGP4","PERIOD":"95.439","REF_FRAME":"TEME","EPOCH":"2022-11-10T14:05:57.566112","RA_OF_ASC_NODE":"263.9367","ELEMENT_SET_NO":"999","TIME_SYSTEM":"UTC","PERIAPSIS":"537.980","DECAY_DATE":null},{"ELEMENT_SET_NO":"999","TIME_SYSTEM":"UTC","PERIAPSIS":"538.263","DECAY_DATE":null,"RA_OF_ASC_NODE":"263.9508","MEAN_ANOMALY":"327.3330","PERIOD":"95.441","REF_FRAME":"TEME","EPOCH":"2022-11-10T14:00:41.486400","MEAN_ELEMENT_THEORY":"SGP4","TLE_LINE2":"2 49438  53.2157 263.9508 0002361  32.7808 327.3330 15.08790635 55472","EPHEMERIS_TYPE":"0","TLE_LINE1":"1 49438U 21104AG  22314.58381350  .00004752  00000-0  31691-3 0  9992","NORAD_CAT_ID":"49438","SEMIMAJOR_AXIS":"6918.031","INCLINATION":"53.2157","CENTER_NAME":"EARTH","RCS_SIZE":"LARGE","SITE":"AFETR","MEAN_MOTION_DDOT":"0.0000000000000","GP_ID":"217371658","OBJECT_ID":"2021-104AG","MEAN_MOTION_DOT":"0.00004752","OBJECT_NAME":"STARLINK-3044","LAUNCH_DATE":"2021-11-13","CLASSIFICATION_TYPE":"U","REV_AT_EPOCH":"5547","FILE":"3650843","OBJECT_TYPE":"PAYLOAD","BSTAR":"0.00031691000000","ECCENTRICITY":"0.00023610","APOAPSIS":"541.530","ARG_OF_PERICENTER":"32.7808","COUNTRY_CODE":"US","MEAN_MOTION":"15.08790635"},{"INCLINATION":"53.2165","SEMIMAJOR_AXIS":"6917.901","CENTER_NAME":"EARTH","TLE_LINE1":"1 49439U 21104AH  22314.56539836 -.00003647  00000-0 -21117-3 0  9991","NORAD_CAT_ID":"49439","EPHEMERIS_TYPE":"0","TLE_LINE2":"2 49439  53.2165 264.0361 0002868  21.9855 338.1260 15.08833157 55474","PERIOD":"95.438","EPOCH":"2022-11-10T13:34:10.418304","REF_FRAME":"TEME","MEAN_ELEMENT_THEORY":"SGP4","MEAN_ANOMALY":"338.1260","RA_OF_ASC_NODE":"264.0361","DECAY_DATE":null,"PERIAPSIS":"537.782","TIME_SYSTEM":"UTC","ELEMENT_SET_NO":"999","MEAN_MOTION":"15.08833157","COUNTRY_CODE":"US","ARG_OF_PERICENTER":"21.9855","APOAPSIS":"541.750","ECCENTRICITY":"0.00028680","BSTAR":"-0.00021117000000","OBJECT_TYPE":"PAYLOAD","FILE":"3650843","REV_AT_EPOCH":"5547","CLASSIFICATION_TYPE":"U","LAUNCH_DATE":"2021-11-13","OBJECT_NAME":"STARLINK-3108","MEAN_MOTION_DOT":"-0.00003647","GP_ID":"217370420","MEAN_MOTION_DDOT":"0.0000000000000","OBJECT_ID":"2021-104AH","SITE":"AFETR","RCS_SIZE":"LARGE"},{"DECAY_DATE":null,"PERIAPSIS":"537.968","TIME_SYSTEM":"UTC","ELEMENT_SET_NO":"999","RA_OF_ASC_NODE":"265.4539","PERIOD":"95.439","MEAN_ELEMENT_THEORY":"SGP4","REF_FRAME":"TEME","EPOCH":"2022-11-10T05:58:26.160096","MEAN_ANOMALY":"331.8886","SEMIMAJOR_AXIS":"6917.927","CENTER_NAME":"EARTH","INCLINATION":"53.2169","TLE_LINE1":"1 49440U 21104AJ  22314.24891389  .00009188  00000-0  59487-3 0  9997","NORAD_CAT_ID":"49440","EPHEMERIS_TYPE":"0","TLE_LINE2":"2 49440  53.2169 265.4539 0002637  28.2249 331.8886 15.08824721 56497","LAUNCH_DATE":"2021-11-13","OBJECT_NAME":"STARLINK-3105","MEAN_MOTION_DDOT":"0.0000000000000","GP_ID":"217346859","OBJECT_ID":"2021-104AJ","MEAN_MOTION_DOT":"0.00009188","SITE":"AFETR","RCS_SIZE":"LARGE","BSTAR":"0.00059487000000","OBJECT_TYPE":"PAYLOAD","FILE":"3650784","REV_AT_EPOCH":"5649","CLASSIFICATION_TYPE":"U","COUNTRY_CODE":"US","ARG_OF_PERICENTER":"28.2249","APOAPSIS":"541.616","ECCENTRICITY":"0.00026370","MEAN_MOTION":"15.08824721"},{"EPHEMERIS_TYPE":"0","CENTER_NAME":"EARTH","SEMIMAJOR_AXIS":"6917.917","INCLINATION":"53.2158","NORAD_CAT_ID":"49441","TLE_LINE1":"1 49441U 21104AK  22314.82667990 -.00003824  00000-0 -22233-3 0  9993","TLE_LINE2":"2 49441  53.2158 262.8619 0002881  18.8691 341.2408 15.08827963 55511","PERIOD":"95.438","EPOCH":"2022-11-10T19:50:25.143360","REF_FRAME":"TEME","MEAN_ELEMENT_THEORY":"SGP4","MEAN_ANOMALY":"341.2408","RA_OF_ASC_NODE":"262.8619","DECAY_DATE":null,"TIME_SYSTEM":"UTC","ELEMENT_SET_NO":"999","PERIAPSIS":"537.789","MEAN_MOTION":"15.08827963","COUNTRY_CODE":"US","ARG_OF_PERICENTER":"18.8691","APOAPSIS":"541.775","ECCENTRICITY":"0.00028810","FILE":"3650843","BSTAR":"-0.00022233000000","OBJECT_TYPE":"PAYLOAD","REV_AT_EPOCH":"5551","CLASSIFICATION_TYPE":"U","MEAN_MOTION_DDOT":"0.0000000000000","GP_ID":"217371417","MEAN_MOTION_DOT":"-0.00003824","OBJECT_ID":"2021-104AK","LAUNCH_DATE":"2021-11-13","OBJECT_NAME":"STARLINK-3128","RCS_SIZE":"LARGE","SITE":"AFETR"}];
